start=new Date('2022-02-02T00:00:00.000Z').valueOf();
sats=[{"PERIAPSIS":"546.093","SITE":"AFETR","MEAN_ANOMALY":"271.4631","SEMIMAJOR_AXIS":"6925.344","REF_FRAME":"TEME","OBJECT_NAME":"STARLINK-1162","COUNTRY_CODE":"US","FILE":"3289675","PERIOD":"95.592","MEAN_MOTION_DDOT":"0.0000000000000","ARG_OF_PERICENTER":"88.6543","MEAN_MOTION_DOT":"0.00000975","OBJECT_ID":"2020-006Q","TLE_LINE2":"2 45058  53.0527 166.3270 0001611  88.6543 271.4631 15.06401596110850","DECAY_DATE":null,"OBJECT_TYPE":"PAYLOAD","ECCENTRICITY":"0.00016110","EPHEMERIS_TYPE":"0","CLASSIFICATION_TYPE":"U","MEAN_ELEMENT_THEORY":"SGP4","BSTAR":"0.00008435000000","REV_AT_EPOCH":"11085","ELEMENT_SET_NO":"999","GP_ID":"195121670","RA_OF_ASC_NODE":"166.3270","CENTER_NAME":"EARTH","MEAN_MOTION":"15.06401596","RCS_SIZE":"LARGE","TIME_SYSTEM":"UTC","APOAPSIS":"548.324","INCLINATION":"53.0527","NORAD_CAT_ID":"45058","EPOCH":"2022-02-01T19:42:16.926336","LAUNCH_DATE":"2020-01-29","TLE_LINE1":"1 45058U 20006Q   22032.82102924  .00000975  00000-0  84350-4 0  9992"},{"OBJECT_NAME":"STARLINK-1165","REF_FRAME":"TEME","SEMIMAJOR_AXIS":"6925.352","MEAN_ANOMALY":"268.1165","SITE":"AFETR","PERIAPSIS":"545.818","MEAN_ELEMENT_THEORY":"SGP4","CLASSIFICATION_TYPE":"U","EPHEMERIS_TYPE":"0","OBJECT_TYPE":"PAYLOAD","ECCENTRICITY":"0.00020200","DECAY_DATE":null,"TLE_LINE2":"2 45059  53.0545 166.5254 0002020  92.0056 268.1165 15.06398887110840","OBJECT_ID":"2020-006R","MEAN_MOTION_DDOT":"0.0000000000000","PERIOD":"95.592","ARG_OF_PERICENTER":"92.0056","MEAN_MOTION_DOT":"-0.00000356","FILE":"3289675","COUNTRY_CODE":"US","APOAPSIS":"548.616","TIME_SYSTEM":"UTC","MEAN_MOTION":"15.06398887","RCS_SIZE":"LARGE","CENTER_NAME":"EARTH","GP_ID":"195121413","RA_OF_ASC_NODE":"166.5254","ELEMENT_SET_NO":"999","REV_AT_EPOCH":"11084","BSTAR":"-0.00000499480000","TLE_LINE1":"1 45059U 20006R   22032.77680545 -.00000356  00000-0 -49948-5 0  9997","LAUNCH_DATE":"2020-01-29","EPOCH":"2022-02-01T18:38:35.990880","NORAD_CAT_ID":"45059","INCLINATION":"53.0545"},{"OBJECT_TYPE":"PAYLOAD","ECCENTRICITY":"0.00016040","CLASSIFICATION_TYPE":"U","EPHEMERIS_TYPE":"0","MEAN_ELEMENT_THEORY":"SGP4","FILE":"3289675","COUNTRY_CODE":"US","MEAN_MOTION_DDOT":"0.0000000000000","PERIOD":"95.592","ARG_OF_PERICENTER":"80.4228","MEAN_MOTION_DOT":"-0.00000198","OBJECT_ID":"2020-006S","DECAY_DATE":null,"TLE_LINE2":"2 45060  53.0537 166.2454 0001604  80.4228 279.6942 15.06398960110854","MEAN_ANOMALY":"279.6942","SEMIMAJOR_AXIS":"6925.352","REF_FRAME":"TEME","OBJECT_NAME":"STARLINK-1166","PERIAPSIS":"546.106","SITE":"AFETR","LAUNCH_DATE":"2020-01-29","TLE_LINE1":"1 45060U 20006S   22032.83946374 -.00000198  00000-0  55859-5 0  9992","INCLINATION":"53.0537","NORAD_CAT_ID":"45060","EPOCH":"2022-02-01T20:08:49.667136","ELEMENT_SET_NO":"999","GP_ID":"195120669","CENTER_NAME":"EARTH","RA_OF_ASC_NODE":"166.2454","RCS_SIZE":"LARGE","MEAN_MOTION":"15.06398960","APOAPSIS":"548.328","TIME_SYSTEM":"UTC","BSTAR":"0.00000558590000","REV_AT_EPOCH":"11085"},{"SITE":"AFETR","PERIAPSIS":"546.088","SEMIMAJOR_AXIS":"6925.343","MEAN_ANOMALY":"274.8108","OBJECT_NAME":"STARLINK-1169","REF_FRAME":"TEME","MEAN_MOTION_DDOT":"0.0000000000000","PERIOD":"95.592","ARG_OF_PERICENTER":"85.3066","MEAN_MOTION_DOT":"0.00001081","COUNTRY_CODE":"US","FILE":"3289675","TLE_LINE2":"2 45061  53.0549 166.5187 0001617  85.3066 274.8108 15.06401785110842","DECAY_DATE":null,"OBJECT_ID":"2020-006T","CLASSIFICATION_TYPE":"U","EPHEMERIS_TYPE":"0","OBJECT_TYPE":"PAYLOAD","ECCENTRICITY":"0.00016170","MEAN_ELEMENT_THEORY":"SGP4","REV_AT_EPOCH":"11084","BSTAR":"0.00009148000000","GP_ID":"195120919","CENTER_NAME":"EARTH","RA_OF_ASC_NODE":"166.5187","ELEMENT_SET_NO":"999","TIME_SYSTEM":"UTC","APOAPSIS":"548.328","MEAN_MOTION":"15.06401785","RCS_SIZE":"LARGE","INCLINATION":"53.0549","EPOCH":"2022-02-01T18:43:53.855616","NORAD_CAT_ID":"45061","TLE_LINE1":"1 45061U 20006T   22032.78048444  .00001081  00000-0  91480-4 0  9998","LAUNCH_DATE":"2020-01-29"},{"OBJECT_ID":"2020-006U","DECAY_DATE":null,"TLE_LINE2":"2 45062  53.0533 166.8643 0001883  89.0380 271.0825 15.06416288110839","FILE":"3289675","COUNTRY_CODE":"US","PERIOD":"95.591","MEAN_MOTION_DDOT":"0.0000000000000","ARG_OF_PERICENTER":"89.0380","MEAN_MOTION_DOT":"0.00008127","MEAN_ELEMENT_THEORY":"SGP4","ECCENTRICITY":"0.00018830","OBJECT_TYPE":"PAYLOAD","EPHEMERIS_TYPE":"0","CLASSIFICATION_TYPE":"U","PERIAPSIS":"545.860","SITE":"AFETR","REF_FRAME":"TEME","OBJECT_NAME":"STARLINK-1171","MEAN_ANOMALY":"271.0825","SEMIMAJOR_AXIS":"6925.299","NORAD_CAT_ID":"45062","EPOCH":"2022-02-01T16:47:08.611008","INCLINATION":"53.0533","LAUNCH_DATE":"2020-01-29","TLE_LINE1":"1 45062U 20006U   22032.69940522  .00008127  00000-0  56363-3 0  9995","BSTAR":"0.00056363000000","REV_AT_EPOCH":"11083","RCS_SIZE":"LARGE","MEAN_MOTION":"15.06416288","TIME_SYSTEM":"UTC","APOAPSIS":"548.468","ELEMENT_SET_NO":"999","GP_ID":"195121171","RA_OF_ASC_NODE":"166.8643","CENTER_NAME":"EARTH"},{"BSTAR":"0.00010974000000","REV_AT_EPOCH":"11112","RCS_SIZE":"LARGE","MEAN_MOTION":"15.06401823","APOAPSIS":"548.200","TIME_SYSTEM":"UTC","ELEMENT_SET_NO":"999","GP_ID":"195121913","RA_OF_ASC_NODE":"146.5044","CENTER_NAME":"EARTH","NORAD_CAT_ID":"45064","EPOCH":"2022-02-01T18:41:14.766432","INCLINATION":"53.0554","LAUNCH_DATE":"2020-01-29","TLE_LINE1":"1 45064U 20006W   22032.77864313  .00001354  00000-0  10974-3 0  9992","PERIAPSIS":"546.216","SITE":"AFETR","REF_FRAME":"TEME","OBJECT_NAME":"STARLINK-1133","MEAN_ANOMALY":"274.0146","SEMIMAJOR_AXIS":"6925.343","OBJECT_ID":"2020-006W","TLE_LINE2":"2 45064  53.0554 146.5044 0001433  86.1007 274.0146 15.06401823111120","DECAY_DATE":null,"COUNTRY_CODE":"US","FILE":"3289675","PERIOD":"95.592","ARG_OF_PERICENTER":"86.1007","MEAN_MOTION_DDOT":"0.0000000000000","MEAN_MOTION_DOT":"0.00001354","MEAN_ELEMENT_THEORY":"SGP4","OBJECT_TYPE":"PAYLOAD","ECCENTRICITY":"0.00014330","CLASSIFICATION_TYPE":"U","EPHEMERIS_TYPE":"0"},{"MEAN_ELEMENT_THEORY":"SGP4","OBJECT_TYPE":"PAYLOAD","ECCENTRICITY":"0.00014260","EPHEMERIS_TYPE":"0","CLASSIFICATION_TYPE":"U","OBJECT_ID":"2020-006X","DECAY_DATE":null,"TLE_LINE2":"2 45065  53.0527 146.8051 0001426  90.4806 269.6347 15.06411673111115","FILE":"3289675","COUNTRY_CODE":"US","ARG_OF_PERICENTER":"90.4806","PERIOD":"95.591","MEAN_MOTION_DDOT":"0.0000000000000","MEAN_MOTION_DOT":"-0.00003417","REF_FRAME":"TEME","OBJECT_NAME":"STARLINK-1139","MEAN_ANOMALY":"269.6347","SEMIMAJOR_AXIS":"6925.313","PERIAPSIS":"546.190","SITE":"AFETR","LAUNCH_DATE":"2020-01-29","TLE_LINE1":"1 45065U 20006X   22032.71597663 -.00003417  00000-0 -21056-3 0  9995","NORAD_CAT_ID":"45065","EPOCH":"2022-02-01T17:11:00.380832","INCLINATION":"53.0527","RCS_SIZE":"LARGE","MEAN_MOTION":"15.06411673","APOAPSIS":"548.165","TIME_SYSTEM":"UTC","ELEMENT_SET_NO":"999","RA_OF_ASC_NODE":"146.8051","GP_ID":"195120170","CENTER_NAME":"EARTH","BSTAR":"-0.00021056000000","REV_AT_EPOCH":"11111"},{"REV_AT_EPOCH":"11110","BSTAR":"0.00008904000000","APOAPSIS":"548.085","TIME_SYSTEM":"UTC","MEAN_MOTION":"15.06409570","RCS_SIZE":"LARGE","GP_ID":"195120420","CENTER_NAME":"EARTH","RA_OF_ASC_NODE":"146.9221","ELEMENT_SET_NO":"999","EPOCH":"2022-02-01T16:33:51.126912","NORAD_CAT_ID":"45066","INCLINATION":"53.0548","TLE_LINE1":"1 45066U 20006Y   22032.69017508  .00001045  00000-0  89040-4 0  9999","LAUNCH_DATE":"2020-01-29","SITE":"AFETR","PERIAPSIS":"546.284","OBJECT_NAME":"STARLINK-1145","REF_FRAME":"TEME","SEMIMAJOR_AXIS":"6925.319","MEAN_ANOMALY":"281.1336","DECAY_DATE":null,"TLE_LINE2":"2 45066  53.0548 146.9221 0001300  78.9799 281.1336 15.06409570111101","OBJECT_ID":"2020-006Y","MEAN_MOTION_DDOT":"0.0000000000000","PERIOD":"95.592","MEAN_MOTION_DOT":"0.00001045","ARG_OF_PERICENTER":"78.9799","FILE":"3289675","COUNTRY_CODE":"US","MEAN_ELEMENT_THEORY":"SGP4","CLASSIFICATION_TYPE":"U","EPHEMERIS_TYPE":"0","OBJECT_TYPE":"PAYLOAD","ECCENTRICITY":"0.00013000"},{"BSTAR":"0.00008626200000","REV_AT_EPOCH":"11111","RCS_SIZE":"LARGE","MEAN_MOTION":"15.06404535","APOAPSIS":"548.221","TIME_SYSTEM":"UTC","ELEMENT_SET_NO":"999","GP_ID":"195121671","CENTER_NAME":"EARTH","RA_OF_ASC_NODE":"146.8342","NORAD_CAT_ID":"45067","EPOCH":"2022-02-01T16:55:05.325600","INCLINATION":"53.0535","LAUNCH_DATE":"2020-01-29","TLE_LINE1":"1 45067U 20006Z   22032.70492275  .00001004  00000-0  86262-4 0  9998","PERIAPSIS":"546.178","SITE":"AFETR","REF_FRAME":"TEME","OBJECT_NAME":"STARLINK-1150","MEAN_ANOMALY":"268.3310","SEMIMAJOR_AXIS":"6925.335","OBJECT_ID":"2020-006Z","TLE_LINE2":"2 45067  53.0535 146.8342 0001475  91.7848 268.3310 15.06404535111118","DECAY_DATE":null,"COUNTRY_CODE":"US","FILE":"3289675","PERIOD":"95.592","MEAN_MOTION_DDOT":"0.0000000000000","MEAN_MOTION_DOT":"0.00001004","ARG_OF_PERICENTER":"91.7848","MEAN_ELEMENT_THEORY":"SGP4","ECCENTRICITY":"0.00014750","OBJECT_TYPE":"PAYLOAD","CLASSIFICATION_TYPE":"U","EPHEMERIS_TYPE":"0"},{"MEAN_ANOMALY":"281.3248","SEMIMAJOR_AXIS":"6922.835","REF_FRAME":"TEME","OBJECT_NAME":"STARLINK-1161","PERIAPSIS":"543.738","SITE":"AFETR","ECCENTRICITY":"0.00013900","OBJECT_TYPE":"PAYLOAD","CLASSIFICATION_TYPE":"U","EPHEMERIS_TYPE":"0","MEAN_ELEMENT_THEORY":"SGP4","COUNTRY_CODE":"US","FILE":"3289675","PERIOD":"95.540","ARG_OF_PERICENTER":"78.7897","MEAN_MOTION_DDOT":"0.0000000000000","MEAN_MOTION_DOT":"0.00003468","OBJECT_ID":"2020-006AA","TLE_LINE2":"2 45068  53.0537 146.2297 0001390  78.7897 281.3248 15.07220541111129","DECAY_DATE":null,"ELEMENT_SET_NO":"999","GP_ID":"195121414","RA_OF_ASC_NODE":"146.2297","CENTER_NAME":"EARTH","MEAN_MOTION":"15.07220541","RCS_SIZE":"LARGE","APOAPSIS":"545.662","TIME_SYSTEM":"UTC","BSTAR":"0.00024620000000","REV_AT_EPOCH":"11112","LAUNCH_DATE":"2020-01-29","TLE_LINE1":"1 45068U 20006AA  22032.81345566  .00003468  00000-0  24620-3 0  9996","INCLINATION":"53.0537","NORAD_CAT_ID":"45068","EPOCH":"2022-02-01T19:31:22.569024"}];
